[
    {
        "Altitude(m)": 556966.7236014884,
        "Argument of Periapsis(deg)": 0.006622991110713501,
        "Eccentricity": 0.0,
        "Inclination(deg)": 53.0,
        "Latitude(deg)": 40.09211463490239,
        "Longitude(deg)": -94.88979628555967,
        "Mean Anomaly(deg)": 126.45529286757757,
        "RAAN(deg)": 224.99014336852804,
        "Satellite Name": "Starlink Shell 1 997",
        "Satellite Number": 997,
        "Semi-Major Axis(m)": 6931778.249405717,
        "Time(s)": 190
    },
    {
        "Altitude(m)": 556883.7837265366,
        "Argument of Periapsis(deg)": 0.0069715695902247375,
        "Eccentricity": 0.0,
        "Inclination(deg)": 53.0,
        "Latitude(deg)": 39.700878446962136,
        "Longitude(deg)": -94.29292852576661,
        "Mean Anomaly(deg)": 127.08212407113432,
        "RAAN(deg)": 224.98962459845052,
        "Satellite Name": "Starlink Shell 1 997",
        "Satellite Number": 997,
        "Semi-Major Axis(m)": 6931778.249405717,
        "Time(s)": 200
    },
    {
        "Altitude(m)": 556800.650841392,
        "Argument of Periapsis(deg)": 0.007320148069735974,
        "Eccentricity": 0.0,
        "Inclination(deg)": 53.0,
        "Latitude(deg)": 39.30614788473227,
        "Longitude(deg)": -93.70325155561837,
        "Mean Anomaly(deg)": 127.70895527469108,
        "RAAN(deg)": 224.98910582837308,
        "Satellite Name": "Starlink Shell 1 997",
        "Satellite Number": 997,
        "Semi-Major Axis(m)": 6931778.249405717,
        "Time(s)": 210
    },
    {
        "Altitude(m)": 556717.379118712,
        "Argument of Periapsis(deg)": 0.007668726549247212,
        "Eccentricity": 0.0,
        "Inclination(deg)": 53.0,
        "Latitude(deg)": 38.90800892667217,
        "Longitude(deg)": -93.12064685958924,
        "Mean Anomaly(deg)": 128.3357864782477,
        "RAAN(deg)": 224.98858705829562,
        "Satellite Name": "Starlink Shell 1 997",
        "Satellite Number": 997,
        "Semi-Major Axis(m)": 6931778.249405717,
        "Time(s)": 220
    },
    {
        "Altitude(m)": 556634.0230118257,
        "Argument of Periapsis(deg)": 0.00801730502875845,
        "Eccentricity": 0.0,
        "Inclination(deg)": 53.0,
        "Latitude(deg)": 38.50654573939061,
        "Longitude(deg)": -92.5449951933776,
        "Mean Anomaly(deg)": 128.96261768180446,
        "RAAN(deg)": 224.98806828821813,
        "Satellite Name": "Starlink Shell 1 997",
        "Satellite Number": 997,
        "Semi-Major Axis(m)": 6931778.249405717,
        "Time(s)": 230
    },
    {
        "Altitude(m)": 556550.6372270057,
        "Argument of Periapsis(deg)": 0.008365883508269684,
        "Eccentricity": 0.0,
        "Inclination(deg)": 53.0,
        "Latitude(deg)": 38.10184069626094,
        "Longitude(deg)": -91.97617628415662,
        "Mean Anomaly(deg)": 129.58944888536112,
        "RAAN(deg)": 224.98754951814067,
        "Satellite Name": "Starlink Shell 1 997",
        "Satellite Number": 997,
        "Semi-Major Axis(m)": 6931778.249405717,
        "Time(s)": 240
    },
    {
        "Altitude(m)": 556467.2766955743,
        "Argument of Periapsis(deg)": 0.008714461987780921,
        "Eccentricity": 0.0,
        "Inclination(deg)": 53.0,
        "Latitude(deg)": 37.6939743982804,
        "Longitude(deg)": -91.4140700291088,
        "Mean Anomaly(deg)": 130.2162800889179,
        "RAAN(deg)": 224.9870307480632,
        "Satellite Name": "Starlink Shell 1 997",
        "Satellite Number": 997,
        "Semi-Major Axis(m)": 6931778.249405717,
        "Time(s)": 250
    },
    {
        "Altitude(m)": 556383.996545864,
        "Argument of Periapsis(deg)": 0.009063040467292158,
        "Eccentricity": 0.0,
        "Inclination(deg)": 53.0,
        "Latitude(deg)": 37.283025696928206,
        "Longitude(deg)": -90.85855616711083,
        "Mean Anomaly(deg)": 130.8431112924746,
        "RAAN(deg)": 224.9865119779857,
        "Satellite Name": "Starlink Shell 1 997",
        "Satellite Number": 997,
        "Semi-Major Axis(m)": 6931778.249405717,
        "Time(s)": 260
    },
    {
        "Altitude(m)": 556300.8520750199,
        "Argument of Periapsis(deg)": 0.009411618946803396,
        "Eccentricity": 0.0,
        "Inclination(deg)": 53.0,
        "Latitude(deg)": 36.86907171879456,
        "Longitude(deg)": -90.3095139370521,
        "Mean Anomaly(deg)": 131.4699424960313,
        "RAAN(deg)": 224.98599320790822,
        "Satellite Name": "Starlink Shell 1 997",
        "Satellite Number": 997,
        "Semi-Major Axis(m)": 6931778.249405717,
        "Time(s)": 270
    },
    {
        "Altitude(m)": 556217.8987206824,
        "Argument of Periapsis(deg)": 0.009760197426314633,
        "Eccentricity": 0.0,
        "Inclination(deg)": 53.0,
        "Latitude(deg)": 36.4521878917678,
        "Longitude(deg)": -89.766823236277,
        "Mean Anomaly(deg)": 132.09677369958803,
        "RAAN(deg)": 224.98547443783076,
        "Satellite Name": "Starlink Shell 1 997",
        "Satellite Number": 997,
        "Semi-Major Axis(m)": 6931778.249405717,
        "Time(s)": 280
    },
    {
        "Altitude(m)": 556135.1920325675,
        "Argument of Periapsis(deg)": 0.01010877590582587,
        "Eccentricity": 0.0,
        "Inclination(deg)": 53.0,
        "Latitude(deg)": 36.03244797257876,
        "Longitude(deg)": -89.23036425401946,
        "Mean Anomaly(deg)": 132.72360490314472,
        "RAAN(deg)": 224.98495566775327,
        "Satellite Name": "Starlink Shell 1 997",
        "Satellite Number": 997,
        "Semi-Major Axis(m)": 6931778.249405717,
        "Time(s)": 290
    },
    {
        "Altitude(m)": 556052.7876439241,
        "Argument of Periapsis(deg)": 0.010457354385337106,
        "Eccentricity": 0.0,
        "Inclination(deg)": 53.0,
        "Latitude(deg)": 35.60992407551837,
        "Longitude(deg)": -88.70001709331007,
        "Mean Anomaly(deg)": 133.35043610670147,
        "RAAN(deg)": 224.9844368976758,
        "Satellite Name": "Starlink Shell 1 997",
        "Satellite Number": 997,
        "Semi-Major Axis(m)": 6931778.249405717,
        "Time(s)": 300
    },
    {
        "Altitude(m)": 555970.7412429194,
        "Argument of Periapsis(deg)": 0.010805932864848343,
        "Eccentricity": 0.0,
        "Inclination(deg)": 53.0,
        "Latitude(deg)": 35.18468670215702,
        "Longitude(deg)": -88.17566289482475,
        "Mean Anomaly(deg)": 133.97726731025816,
        "RAAN(deg)": 224.98391812759834,
        "Satellite Name": "Starlink Shell 1 997",
        "Satellite Number": 997,
        "Semi-Major Axis(m)": 6931778.249405717,
        "Time(s)": 310
    },
    {
        "Altitude(m)": 555889.1085439426,
        "Argument of Periapsis(deg)": 0.01115451134435958,
        "Eccentricity": 0.0,
        "Inclination(deg)": 53.0,
        "Latitude(deg)": 34.75680477190587,
        "Longitude(deg)": -87.65718343751996,
        "Mean Anomaly(deg)": 134.60409851381488,
        "RAAN(deg)": 224.98339935752085,
        "Satellite Name": "Starlink Shell 1 997",
        "Satellite Number": 997,
        "Semi-Major Axis(m)": 6931778.249405717,
        "Time(s)": 320
    },
    {
        "Altitude(m)": 555807.9452588634,
        "Argument of Periapsis(deg)": 0.011503089823870818,
        "Eccentricity": 0.0,
        "Inclination(deg)": 53.0,
        "Latitude(deg)": 34.326345653273954,
        "Longitude(deg)": -87.1444607294966,
        "Mean Anomaly(deg)": -224.7690702826284,
        "RAAN(deg)": 224.98288058744342,
        "Satellite Name": "Starlink Shell 1 997",
        "Satellite Number": 997,
        "Semi-Major Axis(m)": 6931778.249405717,
        "Time(s)": 330
    },
    {
        "Altitude(m)": 555727.3070682342,
        "Argument of Periapsis(deg)": 0.011851668303382053,
        "Eccentricity": 0.0,
        "Inclination(deg)": 53.0,
        "Latitude(deg)": 33.8933751956869,
        "Longitude(deg)": -86.6373781025229,
        "Mean Anomaly(deg)": -224.1422390790717,
        "RAAN(deg)": 224.98236181736596,
        "Satellite Name": "Starlink Shell 1 997",
        "Satellite Number": 997,
        "Semi-Major Axis(m)": 6931778.249405717,
        "Time(s)": 340
    },
    {
        "Altitude(m)": 555647.2495924459,
        "Argument of Periapsis(deg)": 0.012200246782893292,
        "Eccentricity": 0.0,
        "Inclination(deg)": 53.0,
        "Latitude(deg)": 33.457957761742264,
        "Longitude(deg)": -86.13581978501104,
        "Mean Anomaly(deg)": -223.515407875515,
        "RAAN(deg)": 224.98184304728846,
        "Satellite Name": "Starlink Shell 1 997",
        "Satellite Number": 997,
        "Semi-Major Axis(m)": 6931778.249405717,
        "Time(s)": 350
    },
    {
        "Altitude(m)": 555567.8283629144,
        "Argument of Periapsis(deg)": 0.012548825262404526,
        "Eccentricity": 0.0,
        "Inclination(deg)": 53.0,
        "Latitude(deg)": 33.02015625978831,
        "Longitude(deg)": -85.63967046684074,
        "Mean Anomaly(deg)": -222.88857667195825,
        "RAAN(deg)": 224.981324277211,
        "Satellite Name": "Starlink Shell 1 997",
        "Satellite Number": 997,
        "Semi-Major Axis(m)": 6931778.249405717,
        "Time(s)": 360
    },
    {
        "Altitude(m)": 555489.0987932178,
        "Argument of Periapsis(deg)": 0.012897403741915765,
        "Eccentricity": 0.0,
        "Inclination(deg)": 53.0,
        "Latitude(deg)": 32.58003217672439,
        "Longitude(deg)": -85.14881636940413,
        "Mean Anomaly(deg)": -222.26174546840153,
        "RAAN(deg)": 224.9808055071335,
        "Satellite Name": "Starlink Shell 1 997",
        "Satellite Number": 997,
        "Semi-Major Axis(m)": 6931778.249405717,
        "Time(s)": 370
    }
]